[{"AddressID":1, "HouseNumber":752, "StreetName":"Lovers Lane", "City":"Dallas", "State":"TX", "Zip":"75462"},
 {"AddressID":2, "HouseNumber":745, "StreetName":"JFK Dr", "City":"Austin", "State":"TX", "Zip":"75519"},
 {"AddressID":3, "HouseNumber":807, "StreetName":"FallCreek", "City":"Dallas", "State":"TX", "Zip":"75177"},
 {"AddressID":4, "HouseNumber":738, "StreetName":"JFK Dr", "City":"Austin", "State":"TX", "Zip":"75240"},
 {"AddressID":5, "HouseNumber":533, "StreetName":"FallCreek", "City":"Austin", "State":"TX", "Zip":"75730"},
 {"AddressID":6, "HouseNumber":676, "StreetName":"Airport blvd", "City":"Dallas", "State":"TX", "Zip":"75516"},
 {"AddressID":7, "HouseNumber":980, "StreetName":"Airport blvd", "City":"Dallas", "State":"TX", "Zip":"75454"},
 {"AddressID":8, "HouseNumber":935, "StreetName":"Airport blvd", "City":"Dallas", "State":"TX", "Zip":"75527"},
 {"AddressID":9, "HouseNumber":964, "StreetName":"Royal Lane", "City":"Houston", "State":"TX", "Zip":"75490"},
 {"AddressID":10, "HouseNumber":621, "StreetName":"Royal Lane", "City":"Dallas", "State":"TX", "Zip":"75538"},
 {"AddressID":11, "HouseNumber":461, "StreetName":"JFK Dr", "City":"Dallas", "State":"TX", "Zip":"75817"},
 {"AddressID":12, "HouseNumber":723, "StreetName":"Airport blvd", "City":"Houston", "State":"TX", "Zip":"75433"},
 {"AddressID":13, "HouseNumber":114, "StreetName":"Royal Lane", "City":"Houston", "State":"TX", "Zip":"75635"},
 {"AddressID":14, "HouseNumber":597, "StreetName":"Lovers Lane", "City":"Houston", "State":"TX", "Zip":"75121"},
 {"AddressID":15, "HouseNumber":235, "StreetName":"Lovers Lane", "City":"Houston", "State":"TX", "Zip":"75573"},
 {"AddressID":16, "HouseNumber":365, "StreetName":"Royal Lane", "City":"Dallas", "State":"TX", "Zip":"75590"},
 {"AddressID":17, "HouseNumber":784, "StreetName":"FallCreek", "City":"Houston", "State":"TX", "Zip":"75322"},
 {"AddressID":18, "HouseNumber":738, "StreetName":"JFK Dr", "City":"Austin", "State":"TX", "Zip":"75742"},
 {"AddressID":19, "HouseNumber":954, "StreetName":"Airport blvd", "City":"Austin", "State":"TX", "Zip":"75625"},
 {"AddressID":20, "HouseNumber":320, "StreetName":"Lovers Lane", "City":"Austin", "State":"TX", "Zip":"75216"},
 {"AddressID":21, "HouseNumber":784, "StreetName":"FallCreek", "City":"Austin", "State":"TX", "Zip":"75280"},
 {"AddressID":22, "HouseNumber":237, "StreetName":"Royal Lane", "City":"Houston", "State":"TX", "Zip":"75852"},
 {"AddressID":23, "HouseNumber":656, "StreetName":"Airport blvd", "City":"Dallas", "State":"TX", "Zip":"75615"},
 {"AddressID":24, "HouseNumber":138, "StreetName":"Lovers Lane", "City":"Houston", "State":"TX", "Zip":"75712"},
 {"AddressID":25, "HouseNumber":990, "StreetName":"FallCreek", "City":"Austin", "State":"TX", "Zip":"75488"},
 {"AddressID":26, "HouseNumber":955, "StreetName":"Royal Lane", "City":"Dallas", "State":"TX", "Zip":"75564"},
 {"AddressID":27, "HouseNumber":545, "StreetName":"Royal Lane", "City":"Dallas", "State":"TX", "Zip":"75767"},
 {"AddressID":28, "HouseNumber":568, "StreetName":"Royal Lane", "City":"Dallas", "State":"TX", "Zip":"75647"},
 {"AddressID":29, "HouseNumber":101, "StreetName":"FallCreek", "City":"Houston", "State":"TX", "Zip":"75308"},
 {"AddressID":30, "HouseNumber":716, "StreetName":"Airport blvd", "City":"Houston", "State":"TX", "Zip":"75637"},
 {"AddressID":31, "HouseNumber":639, "StreetName":"Lovers Lane", "City":"Houston", "State":"TX", "Zip":"75170"},
 {"AddressID":32, "HouseNumber":810, "StreetName":"Royal Lane", "City":"Austin", "State":"TX", "Zip":"75558"},
 {"AddressID":33, "HouseNumber":190, "StreetName":"JFK Dr", "City":"Austin", "State":"TX", "Zip":"75447"},
 {"AddressID":34, "HouseNumber":111, "StreetName":"JFK Dr", "City":"Austin", "State":"TX", "Zip":"75112"},
 {"AddressID":35, "HouseNumber":774, "StreetName":"FallCreek", "City":"Houston", "State":"TX", "Zip":"75792"},
 {"AddressID":36, "HouseNumber":552, "StreetName":"JFK Dr", "City":"Houston", "State":"TX", "Zip":"75740"},
 {"AddressID":37, "HouseNumber":887, "StreetName":"FallCreek", "City":"Dallas", "State":"TX", "Zip":"75684"},
 {"AddressID":38, "HouseNumber":278, "StreetName":"Airport blvd", "City":"Houston", "State":"TX", "Zip":"75659"},
 {"AddressID":39, "HouseNumber":655, "StreetName":"Airport blvd", "City":"Dallas", "State":"TX", "Zip":"75151"},
 {"AddressID":40, "HouseNumber":903, "StreetName":"Airport blvd", "City":"Dallas", "State":"TX", "Zip":"75493"},
 {"AddressID":41, "HouseNumber":972, "StreetName":"Airport blvd", "City":"Houston", "State":"TX", "Zip":"75773"},
 {"AddressID":42, "HouseNumber":410, "StreetName":"JFK Dr", "City":"Houston", "State":"TX", "Zip":"75108"},
 {"AddressID":43, "HouseNumber":917, "StreetName":"FallCreek", "City":"Austin", "State":"TX", "Zip":"75435"},
 {"AddressID":44, "HouseNumber":240, "StreetName":"Lovers Lane", "City":"Austin", "State":"TX", "Zip":"75363"},
 {"AddressID":45, "HouseNumber":972, "StreetName":"FallCreek", "City":"Dallas", "State":"TX", "Zip":"75616"},
 {"AddressID":46, "HouseNumber":409, "StreetName":"Lovers Lane", "City":"Dallas", "State":"TX", "Zip":"75352"},
 {"AddressID":47, "HouseNumber":195, "StreetName":"Airport blvd", "City":"Dallas", "State":"TX", "Zip":"75860"},
 {"AddressID":48, "HouseNumber":710, "StreetName":"Royal Lane", "City":"Dallas", "State":"TX", "Zip":"75500"},
 {"AddressID":49, "HouseNumber":208, "StreetName":"Lovers Lane", "City":"Houston", "State":"TX", "Zip":"75826"},
 {"AddressID":50, "HouseNumber":546, "StreetName":"Royal Lane", "City":"Houston", "State":"TX", "Zip":"75254"},
 {"AddressID":51, "HouseNumber":877, "StreetName":"FallCreek", "City":"Dallas", "State":"TX", "Zip":"75324"},
 {"AddressID":52, "HouseNumber":275, "StreetName":"Airport blvd", "City":"Houston", "State":"TX", "Zip":"75755"},
 {"AddressID":53, "HouseNumber":173, "StreetName":"FallCreek", "City":"Houston", "State":"TX", "Zip":"75268"},
 {"AddressID":54, "HouseNumber":492, "StreetName":"Royal Lane", "City":"Houston", "State":"TX", "Zip":"75833"},
 {"AddressID":55, "HouseNumber":236, "StreetName":"Airport blvd", "City":"Dallas", "State":"TX", "Zip":"75120"},
 {"AddressID":56, "HouseNumber":316, "StreetName":"Lovers Lane", "City":"Houston", "State":"TX", "Zip":"75154"},
 {"AddressID":57, "HouseNumber":287, "StreetName":"JFK Dr", "City":"Houston", "State":"TX", "Zip":"75619"},
 {"AddressID":58, "HouseNumber":473, "StreetName":"FallCreek", "City":"Austin", "State":"TX", "Zip":"75628"},
 {"AddressID":59, "HouseNumber":627, "StreetName":"Royal Lane", "City":"Austin", "State":"TX", "Zip":"75534"},
 {"AddressID":60, "HouseNumber":551, "StreetName":"Airport blvd", "City":"Dallas", "State":"TX", "Zip":"75684"},
 {"AddressID":61, "HouseNumber":338, "StreetName":"FallCreek", "City":"Houston", "State":"TX", "Zip":"75732"},
 {"AddressID":62, "HouseNumber":446, "StreetName":"Airport blvd", "City":"Dallas", "State":"TX", "Zip":"75703"},
 {"AddressID":63, "HouseNumber":715, "StreetName":"Royal Lane", "City":"Austin", "State":"TX", "Zip":"75574"},
 {"AddressID":64, "HouseNumber":534, "StreetName":"JFK Dr", "City":"Dallas", "State":"TX", "Zip":"75380"},
 {"AddressID":65, "HouseNumber":845, "StreetName":"Lovers Lane", "City":"Dallas", "State":"TX", "Zip":"75143"},
 {"AddressID":66, "HouseNumber":572, "StreetName":"Airport blvd", "City":"Houston", "State":"TX", "Zip":"75363"},
 {"AddressID":67, "HouseNumber":231, "StreetName":"JFK Dr", "City":"Dallas", "State":"TX", "Zip":"75857"},
 {"AddressID":68, "HouseNumber":114, "StreetName":"Royal Lane", "City":"Austin", "State":"TX", "Zip":"75895"},
 {"AddressID":69, "HouseNumber":680, "StreetName":"Royal Lane", "City":"Houston", "State":"TX", "Zip":"75714"},
 {"AddressID":70, "HouseNumber":367, "StreetName":"JFK Dr", "City":"Dallas", "State":"TX", "Zip":"75678"},
 {"AddressID":71, "HouseNumber":202, "StreetName":"JFK Dr", "City":"Dallas", "State":"TX", "Zip":"75683"},
 {"AddressID":72, "HouseNumber":495, "StreetName":"FallCreek", "City":"Austin", "State":"TX", "Zip":"75665"},
 {"AddressID":73, "HouseNumber":977, "StreetName":"Royal Lane", "City":"Austin", "State":"TX", "Zip":"75247"},
 {"AddressID":74, "HouseNumber":925, "StreetName":"JFK Dr", "City":"Austin", "State":"TX", "Zip":"75232"},
 {"AddressID":75, "HouseNumber":563, "StreetName":"Airport blvd", "City":"Austin", "State":"TX", "Zip":"75487"},
 {"AddressID":76, "HouseNumber":119, "StreetName":"JFK Dr", "City":"Houston", "State":"TX", "Zip":"75677"},
 {"AddressID":77, "HouseNumber":533, "StreetName":"Airport blvd", "City":"Austin", "State":"TX", "Zip":"75370"},
 {"AddressID":78, "HouseNumber":616, "StreetName":"FallCreek", "City":"Houston", "State":"TX", "Zip":"75855"},
 {"AddressID":79, "HouseNumber":162, "StreetName":"JFK Dr", "City":"Dallas", "State":"TX", "Zip":"75555"},
 {"AddressID":80, "HouseNumber":951, "StreetName":"FallCreek", "City":"Austin", "State":"TX", "Zip":"75475"},
 {"AddressID":81, "HouseNumber":269, "StreetName":"FallCreek", "City":"Austin", "State":"TX", "Zip":"75532"},
 {"AddressID":82, "HouseNumber":187, "StreetName":"Lovers Lane", "City":"Dallas", "State":"TX", "Zip":"75463"},
 {"AddressID":83, "HouseNumber":323, "StreetName":"Airport blvd", "City":"Houston", "State":"TX", "Zip":"75282"},
 {"AddressID":84, "HouseNumber":915, "StreetName":"Lovers Lane", "City":"Austin", "State":"TX", "Zip":"75772"},
 {"AddressID":85, "HouseNumber":785, "StreetName":"Airport blvd", "City":"Dallas", "State":"TX", "Zip":"75226"},
 {"AddressID":86, "HouseNumber":584, "StreetName":"Lovers Lane", "City":"Dallas", "State":"TX", "Zip":"75783"},
 {"AddressID":87, "HouseNumber":413, "StreetName":"Royal Lane", "City":"Houston", "State":"TX", "Zip":"75651"},
 {"AddressID":88, "HouseNumber":276, "StreetName":"Airport blvd", "City":"Austin", "State":"TX", "Zip":"75702"},
 {"AddressID":89, "HouseNumber":434, "StreetName":"Lovers Lane", "City":"Austin", "State":"TX", "Zip":"75296"},
 {"AddressID":90, "HouseNumber":135, "StreetName":"FallCreek", "City":"Austin", "State":"TX", "Zip":"75503"},
 {"AddressID":91, "HouseNumber":675, "StreetName":"FallCreek", "City":"Houston", "State":"TX", "Zip":"75272"},
 {"AddressID":92, "HouseNumber":129, "StreetName":"Lovers Lane", "City":"Austin", "State":"TX", "Zip":"75886"},
 {"AddressID":93, "HouseNumber":360, "StreetName":"JFK Dr", "City":"Austin", "State":"TX", "Zip":"75334"},
 {"AddressID":94, "HouseNumber":400, "StreetName":"Airport blvd", "City":"Houston", "State":"TX", "Zip":"75190"},
 {"AddressID":95, "HouseNumber":944, "StreetName":"Royal Lane", "City":"Austin", "State":"TX", "Zip":"75670"},
 {"AddressID":96, "HouseNumber":196, "StreetName":"Lovers Lane", "City":"Houston", "State":"TX", "Zip":"75299"},
 {"AddressID":97, "HouseNumber":866, "StreetName":"FallCreek", "City":"Houston", "State":"TX", "Zip":"75621"},
 {"AddressID":98, "HouseNumber":164, "StreetName":"FallCreek", "City":"Austin", "State":"TX", "Zip":"75303"},
 {"AddressID":99, "HouseNumber":530, "StreetName":"JFK Dr", "City":"Austin", "State":"TX", "Zip":"75611"},
 {"AddressID":100, "HouseNumber":924, "StreetName":"Royal Lane", "City":"Houston", "State":"TX", "Zip":"75452"}]